{
  "type": "FeatureCollection",
  "features": [
    {
      "type": "Feature",
      "properties": {
        "norad_id": 30066,
        "name": "FENGYUN 1C DEB",
        "group": "fengyun-1c-debris",
        "lat": -40.78571715137704,
        "lon": -17.49530895012986,
        "alt_km": 780.5138152288118,
        "timestamp": "2025-12-10T11:33:53.658908+00:00",
        "meta_object_name": "FENGYUN 1C DEB",
        "meta_object_id": "1999-025PT",
        "meta_epoch": "2025-12-09T18:00:52.930368",
        "meta_mean_motion": 14.19106069,
        "meta_eccentricity": 0.0116689,
        "meta_inclination": 98.634,
        "meta_ra_of_asc_node": 334.2599,
        "meta_arg_of_pericenter": 270.6018,
        "meta_mean_anomaly": 273.3825,
        "meta_ephemeris_type": 0,
        "meta_classification_type": "U",
        "meta_norad_cat_id": 30066,
        "meta_element_set_no": 999,
        "meta_rev_at_epoch": 97794,
        "meta_bstar": 0.00028966,
        "meta_mean_motion_dot": 6.04e-06,
        "meta_mean_motion_ddot": 0,
        "tle_line1": "1 30066U 99025PT  25343.75061262  .00000604  00000+0  28966-3 0  9999",
        "tle_line2": "2 30066  98.6340 334.2599 0116689 270.6018 273.3825 14.19106069977940"
      },
      "geometry": {
        "type": "Point",
        "coordinates": [
          -17.49530895012986,
          -40.78571715137704
        ]
      }
    },
    {
      "type": "Feature",
      "properties": {
        "norad_id": 30067,
        "name": "FENGYUN 1C DEB",
        "group": "fengyun-1c-debris",
        "lat": 40.95209403879663,
        "lon": -137.19769990923905,
        "alt_km": 639.249543495951,
        "timestamp": "2025-12-10T11:33:53.658918+00:00",
        "meta_object_name": "FENGYUN 1C DEB",
        "meta_object_id": "1999-025PU",
        "meta_epoch": "2025-12-10T03:45:39.420864",
        "meta_mean_motion": 14.43672628,
        "meta_eccentricity": 0.0152037,
        "meta_inclination": 98.7653,
        "meta_ra_of_asc_node": 230.1622,
        "meta_arg_of_pericenter": 25.799,
        "meta_mean_anomaly": 126.3478,
        "meta_ephemeris_type": 0,
        "meta_classification_type": "U",
        "meta_norad_cat_id": 30067,
        "meta_element_set_no": 999,
        "meta_rev_at_epoch": 99161,
        "meta_bstar": 0.00055588,
        "meta_mean_motion_dot": 2.119e-05,
        "meta_mean_motion_ddot": 0,
        "tle_line1": "1 30067U 99025PU  25344.15670626  .00002119  00000+0  55588-3 0  9998",
        "tle_line2": "2 30067  98.7653 230.1622 0152037  25.7990 126.3478 14.43672628991612"
      },
      "geometry": {
        "type": "Point",
        "coordinates": [
          -137.19769990923905,
          40.95209403879663
        ]
      }
    },
    {
      "type": "Feature",
      "properties": {
        "norad_id": 30068,
        "name": "FENGYUN 1C DEB",
        "group": "fengyun-1c-debris",
        "lat": 2.2963216718305097,
        "lon": 152.70043976328628,
        "alt_km": 992.3881542863892,
        "timestamp": "2025-12-10T11:33:53.658928+00:00",
        "meta_object_name": "FENGYUN 1C DEB",
        "meta_object_id": "1999-025PV",
        "meta_epoch": "2025-12-09T22:49:16.914144",
        "meta_mean_motion": 14.12043237,
        "meta_eccentricity": 0.0190153,
        "meta_inclination": 98.7364,
        "meta_ra_of_asc_node": 331.8295,
        "meta_arg_of_pericenter": 356.7853,
        "meta_mean_anomaly": 3.2084,
        "meta_ephemeris_type": 0,
        "meta_classification_type": "U",
        "meta_norad_cat_id": 30068,
        "meta_element_set_no": 999,
        "meta_rev_at_epoch": 97304,
        "meta_bstar": 0.00032393,
        "meta_mean_motion_dot": 6.6e-06,
        "meta_mean_motion_ddot": 0,
        "tle_line1": "1 30068U 99025PV  25343.95089021  .00000660  00000+0  32393-3 0  9997",
        "tle_line2": "2 30068  98.7364 331.8295 0190153 356.7853   3.2084 14.12043237973040"
      },
      "geometry": {
        "type": "Point",
        "coordinates": [
          152.70043976328628,
          2.2963216718305097
        ]
      }
    },
    {
      "type": "Feature",
      "properties": {
        "norad_id": 30069,
        "name": "FENGYUN 1C DEB",
        "group": "fengyun-1c-debris",
        "lat": -44.76645546604428,
        "lon": -24.763540733639903,
        "alt_km": 891.4528570296352,
        "timestamp": "2025-12-10T11:33:53.658938+00:00",
        "meta_object_name": "FENGYUN 1C DEB",
        "meta_object_id": "1999-025PW",
        "meta_epoch": "2025-12-09T12:23:09.070080",
        "meta_mean_motion": 14.05220338,
        "meta_eccentricity": 0.00499952,
        "meta_inclination": 98.8009,
        "meta_ra_of_asc_node": 325.46,
        "meta_arg_of_pericenter": 62.0278,
        "meta_mean_anomaly": 50.1208,
        "meta_ephemeris_type": 0,
        "meta_classification_type": "U",
        "meta_norad_cat_id": 30069,
        "meta_element_set_no": 999,
        "meta_rev_at_epoch": 96801,
        "meta_bstar": 0.00032075827,
        "meta_mean_motion_dot": 4.82e-06,
        "meta_mean_motion_ddot": 0,
        "tle_line1": "1 30069U 99025PW  25343.51607720  .00000482  00000+0  32076-3 0  9992",
        "tle_line2": "2 30069  98.8009 325.4600 0049995  62.0278  50.1208 14.05220338968013"
      },
      "geometry": {
        "type": "Point",
        "coordinates": [
          -24.763540733639903,
          -44.76645546604428
        ]
      }
    },
    {
      "type": "Feature",
      "properties": {
        "norad_id": 30070,
        "name": "FENGYUN 1C DEB",
        "group": "fengyun-1c-debris",
        "lat": 69.0304465500519,
        "lon": 21.93698572479904,
        "alt_km": 908.0881326363833,
        "timestamp": "2025-12-10T11:33:53.658948+00:00",
        "meta_object_name": "FENGYUN 1C DEB",
        "meta_object_id": "1999-025PX",
        "meta_epoch": "2025-12-09T03:00:43.303680",
        "meta_mean_motion": 14.09858835,
        "meta_eccentricity": 0.0328362,
        "meta_inclination": 98.2865,
        "meta_ra_of_asc_node": 43.0347,
        "meta_arg_of_pericenter": 329.3985,
        "meta_mean_anomaly": 57.2744,
        "meta_ephemeris_type": 0,
        "meta_classification_type": "U",
        "meta_norad_cat_id": 30070,
        "meta_element_set_no": 999,
        "meta_rev_at_epoch": 95828,
        "meta_bstar": 0.0017200208,
        "meta_mean_motion_dot": 4.958e-05,
        "meta_mean_motion_ddot": 0,
        "tle_line1": "1 30070U 99025PX  25343.12550120  .00004958  00000+0  17200-2 0  9995",
        "tle_line2": "2 30070  98.2865  43.0347 0328362 329.3985  57.2744 14.09858835958286"
      },
      "geometry": {
        "type": "Point",
        "coordinates": [
          21.93698572479904,
          69.0304465500519
        ]
      }
    },
    {
      "type": "Feature",
      "properties": {
        "norad_id": 30071,
        "name": "FENGYUN 1C DEB",
        "group": "fengyun-1c-debris",
        "lat": -53.91082497916827,
        "lon": 95.74029892551086,
        "alt_km": 753.6861529670423,
        "timestamp": "2025-12-10T11:33:53.658958+00:00",
        "meta_object_name": "FENGYUN 1C DEB",
        "meta_object_id": "1999-025PY",
        "meta_epoch": "2025-12-09T22:52:31.079136",
        "meta_mean_motion": 14.52048146,
        "meta_eccentricity": 0.0039602,
        "meta_inclination": 98.6583,
        "meta_ra_of_asc_node": 83.1291,
        "meta_arg_of_pericenter": 118.22,
        "meta_mean_anomaly": 304.7984,
        "meta_ephemeris_type": 0,
        "meta_classification_type": "U",
        "meta_norad_cat_id": 30071,
        "meta_element_set_no": 999,
        "meta_rev_at_epoch": 98186,
        "meta_bstar": 0.0037191,
        "meta_mean_motion_dot": 0.00015176,
        "meta_mean_motion_ddot": 0,
        "tle_line1": "1 30071U 99025PY  25343.95313749  .00015176  00000+0  37191-2 0  9996",
        "tle_line2": "2 30071  98.6583  83.1291 0039602 118.2200 304.7984 14.52048146981862"
      },
      "geometry": {
        "type": "Point",
        "coordinates": [
          95.74029892551086,
          -53.91082497916827
        ]
      }
    },
    {
      "type": "Feature",
      "properties": {
        "norad_id": 30072,
        "name": "FENGYUN 1C DEB",
        "group": "fengyun-1c-debris",
        "lat": 24.725116388736318,
        "lon": 128.40184668461947,
        "alt_km": 777.02799382393,
        "timestamp": "2025-12-10T11:33:53.658968+00:00",
        "meta_object_name": "FENGYUN 1C DEB",
        "meta_object_id": "1999-025PZ",
        "meta_epoch": "2025-12-09T20:24:58.057344",
        "meta_mean_motion": 14.37689979,
        "meta_eccentricity": 0.0059403,
        "meta_inclination": 99.0773,
        "meta_ra_of_asc_node": 131.9575,
        "meta_arg_of_pericenter": 280.6908,
        "meta_mean_anomaly": 78.7591,
        "meta_ephemeris_type": 0,
        "meta_classification_type": "U",
        "meta_norad_cat_id": 30072,
        "meta_element_set_no": 999,
        "meta_rev_at_epoch": 97129,
        "meta_bstar": 0.0052851,
        "meta_mean_motion_dot": 0.00016202,
        "meta_mean_motion_ddot": 0,
        "tle_line1": "1 30072U 99025PZ  25343.85067196  .00016202  00000+0  52851-2 0  9999",
        "tle_line2": "2 30072  99.0773 131.9575 0059403 280.6908  78.7591 14.37689979971292"
      },
      "geometry": {
        "type": "Point",
        "coordinates": [
          128.40184668461947,
          24.725116388736318
        ]
      }
    }
  ]
}